{
    "links": {
        "self": "http://www.neowsapp.com/rest/v1/neo/3892188?api_key=iIulBulltgU6a56xZRHN4H3l9WmuAYTsLGpBGhQ2"
    },
    "id": "3892188",
    "neo_reference_id": "3892188",
    "name": "(2019 UB14)",
    "designation": "2019 UB14",
    "nasa_jpl_url": "http://ssd.jpl.nasa.gov/sbdb.cgi?sstr=3892188",
    "absolute_magnitude_h": 25.9,
    "estimated_diameter": {
        "kilometers": {
            "estimated_diameter_min": 0.0175612318,
            "estimated_diameter_max": 0.0392681082
        },
        "meters": {
            "estimated_diameter_min": 17.561231848,
            "estimated_diameter_max": 39.2681081809
        },
        "miles": {
            "estimated_diameter_min": 0.0109120402,
            "estimated_diameter_max": 0.0244000636
        },
        "feet": {
            "estimated_diameter_min": 57.6155918963,
            "estimated_diameter_max": 128.8323800441
        }
    },
    "is_potentially_hazardous_asteroid": false,
    "close_approach_data": [
        {
            "close_approach_date": "2019-11-12",
            "close_approach_date_full": "2019-Nov-12 22:14",
            "epoch_date_close_approach": 1573596840000,
            "relative_velocity": {
                "kilometers_per_second": "15.5209354875",
                "kilometers_per_hour": "55875.3677551004",
                "miles_per_hour": "34718.7805920512"
            },
            "miss_distance": {
                "astronomical": "0.0127543046",
                "lunar": "4.9614244894",
                "kilometers": "1908016.801491202",
                "miles": "1185586.6640625076"
            },
            "orbiting_body": "Earth"
        },
        {
            "close_approach_date": "2164-01-18",
            "close_approach_date_full": "2164-Jan-18 10:37",
            "epoch_date_close_approach": 6123551820000,
            "relative_velocity": {
                "kilometers_per_second": "12.9358906957",
                "kilometers_per_hour": "46569.2065043713",
                "miles_per_hour": "28936.2938971189"
            },
            "miss_distance": {
                "astronomical": "0.2117923706",
                "lunar": "82.3872321634",
                "kilometers": "31683687.524010622",
                "miles": "19687330.5137737036"
            },
            "orbiting_body": "Earth"
        }
    ],
    "orbital_data": {
        "orbit_id": "3",
        "orbit_determination_date": "2019-12-03 19:59:28",
        "first_observation_date": "2019-10-31",
        "last_observation_date": "2019-11-05",
        "data_arc_in_days": 5,
        "observations_used": 20,
        "orbit_uncertainty": "8",
        "minimum_orbit_intersection": ".00620172",
        "jupiter_tisserand_invariant": "3.413",
        "epoch_osculation": "2458789.5",
        "eccentricity": ".6364049008521502",
        "semi_major_axis": "2.146325185889256",
        "inclination": "3.357845201033837",
        "ascending_node_longitude": "224.8502531382472",
        "orbital_period": "1148.528323230497",
        "perihelion_distance": ".7803933187669314",
        "perihelion_argument": "249.0542555166998",
        "aphelion_distance": "3.512257053011582",
        "perihelion_time": "2458841.474855974881",
        "mean_anomaly": "343.7087620979791",
        "mean_motion": ".3134445992480343",
        "equinox": "J2000",
        "orbit_class": {
            "orbit_class_type": "APO",
            "orbit_class_description": "Near-Earth asteroid orbits which cross the Earth’s orbit similar to that of 1862 Apollo",
            "orbit_class_range": "a (semi-major axis) > 1.0 AU; q (perihelion) < 1.017 AU"
        }
    },
    "is_sentry_object": false
}